YAM-7                   
1 60504U 24149AN  26068.71799904  .00009009  00000+0  30984-3 0  9997
2 60504  97.3828 149.4631 0001973 296.5121  63.5918 15.30304554 86835
STARLINK-35646          
1 66859U 25281M   26068.09242339  .00042308  00000+0  15374-2 0  9994
2 66859  43.0034 346.8924 0001953 259.9846 100.0785 15.27595831 16090
